{
  "type": "FeatureCollection",
  "features": [
    {
      "type": "Feature",
      "properties": {
        "norad_id": 30416,
        "name": "FENGYUN 1C DEB",
        "group": "fengyun-1c-debris",
        "lat": 10.412877517525807,
        "lon": 23.128261246996107,
        "alt_km": 917.1057757683175,
        "timestamp": "2025-12-26T18:39:32.556543+00:00",
        "meta_object_name": "FENGYUN 1C DEB",
        "meta_object_id": "1999-025AEF",
        "meta_epoch": "2025-12-26T01:29:18.409632",
        "meta_mean_motion": 14.02648313,
        "meta_eccentricity": 0.00558781,
        "meta_inclination": 98.8355,
        "meta_ra_of_asc_node": 24.0722,
        "meta_arg_of_pericenter": 152.7185,
        "meta_mean_anomaly": 207.6936,
        "meta_ephemeris_type": 0,
        "meta_classification_type": "U",
        "meta_norad_cat_id": 30416,
        "meta_element_set_no": 999,
        "meta_rev_at_epoch": 96811,
        "meta_bstar": 0.00032293886,
        "meta_mean_motion_dot": 4.63e-06,
        "meta_mean_motion_ddot": 0,
        "tle_line1": "1 30416U 99025AEF 25360.06201863  .00000463  00000+0  32294-3 0  9996",
        "tle_line2": "2 30416  98.8355  24.0722 0055878 152.7185 207.6936 14.02648313968113"
      },
      "geometry": {
        "type": "Point",
        "coordinates": [
          23.128261246996107,
          10.412877517525807
        ]
      }
    },
    {
      "type": "Feature",
      "properties": {
        "norad_id": 30417,
        "name": "FENGYUN 1C DEB",
        "group": "fengyun-1c-debris",
        "lat": 62.805624644307734,
        "lon": -172.2822751783302,
        "alt_km": 799.0852515772895,
        "timestamp": "2025-12-26T18:39:32.556553+00:00",
        "meta_object_name": "FENGYUN 1C DEB",
        "meta_object_id": "1999-025AEG",
        "meta_epoch": "2025-12-26T06:18:36.923040",
        "meta_mean_motion": 14.14677272,
        "meta_eccentricity": 0.00646472,
        "meta_inclination": 98.6939,
        "meta_ra_of_asc_node": 349.8914,
        "meta_arg_of_pericenter": 81.9005,
        "meta_mean_anomaly": 294.5292,
        "meta_ephemeris_type": 0,
        "meta_classification_type": "U",
        "meta_norad_cat_id": 30417,
        "meta_element_set_no": 999,
        "meta_rev_at_epoch": 97580,
        "meta_bstar": 0.00028173464,
        "meta_mean_motion_dot": 5.11e-06,
        "meta_mean_motion_ddot": 0,
        "tle_line1": "1 30417U 99025AEG 25360.26292735  .00000511  00000+0  28173-3 0  9992",
        "tle_line2": "2 30417  98.6939 349.8914 0064647  81.9005 294.5292 14.14677272975802"
      },
      "geometry": {
        "type": "Point",
        "coordinates": [
          -172.2822751783302,
          62.805624644307734
        ]
      }
    },
    {
      "type": "Feature",
      "properties": {
        "norad_id": 30418,
        "name": "FENGYUN 1C DEB",
        "group": "fengyun-1c-debris",
        "lat": 9.755644278415927,
        "lon": -16.390186523746596,
        "alt_km": 628.2483075670689,
        "timestamp": "2025-12-26T18:39:32.556563+00:00",
        "meta_object_name": "FENGYUN 1C DEB",
        "meta_object_id": "1999-025AEH",
        "meta_epoch": "2025-12-26T09:57:00.789408",
        "meta_mean_motion": 14.84391345,
        "meta_eccentricity": 0.01109341,
        "meta_inclination": 98.8413,
        "meta_ra_of_asc_node": 161.6743,
        "meta_arg_of_pericenter": 72.2904,
        "meta_mean_anomaly": 318.5169,
        "meta_ephemeris_type": 0,
        "meta_classification_type": "U",
        "meta_norad_cat_id": 30418,
        "meta_element_set_no": 999,
        "meta_rev_at_epoch": 795,
        "meta_bstar": 0.00073341698,
        "meta_mean_motion_dot": 6.812e-05,
        "meta_mean_motion_ddot": 0,
        "tle_line1": "1 30418U 99025AEH 25360.41459247  .00006812  00000+0  73342-3 0  9991",
        "tle_line2": "2 30418  98.8413 161.6743 0110934  72.2904 318.5169 14.84391345  7957"
      },
      "geometry": {
        "type": "Point",
        "coordinates": [
          -16.390186523746596,
          9.755644278415927
        ]
      }
    },
    {
      "type": "Feature",
      "properties": {
        "norad_id": 30419,
        "name": "FENGYUN 1C DEB",
        "group": "fengyun-1c-debris",
        "lat": 9.896365703594027,
        "lon": 129.76277263821905,
        "alt_km": 871.2047765655561,
        "timestamp": "2025-12-26T18:39:32.556573+00:00",
        "meta_object_name": "FENGYUN 1C DEB",
        "meta_object_id": "1999-025AEJ",
        "meta_epoch": "2025-12-26T15:17:48.107040",
        "meta_mean_motion": 14.18086248,
        "meta_eccentricity": 0.00526131,
        "meta_inclination": 99.2422,
        "meta_ra_of_asc_node": 307.9892,
        "meta_arg_of_pericenter": 346.4321,
        "meta_mean_anomaly": 188.648,
        "meta_ephemeris_type": 0,
        "meta_classification_type": "U",
        "meta_norad_cat_id": 30419,
        "meta_element_set_no": 999,
        "meta_rev_at_epoch": 97545,
        "meta_bstar": 0.00090562673,
        "meta_mean_motion_dot": 1.835e-05,
        "meta_mean_motion_ddot": 0,
        "tle_line1": "1 30419U 99025AEJ 25360.63736235  .00001835  00000+0  90563-3 0  9995",
        "tle_line2": "2 30419  99.2422 307.9892 0052613 346.4321 188.6480 14.18086248975452"
      },
      "geometry": {
        "type": "Point",
        "coordinates": [
          129.76277263821905,
          9.896365703594027
        ]
      }
    },
    {
      "type": "Feature",
      "properties": {
        "norad_id": 30432,
        "name": "FENGYUN 1C DEB",
        "group": "fengyun-1c-debris",
        "lat": -43.48620112357701,
        "lon": 71.62651627733797,
        "alt_km": 745.2387954083333,
        "timestamp": "2025-12-26T18:39:32.556583+00:00",
        "meta_object_name": "FENGYUN 1C DEB",
        "meta_object_id": "1999-025AET",
        "meta_epoch": "2025-12-26T10:56:49.955136",
        "meta_mean_motion": 14.40742178,
        "meta_eccentricity": 0.00821943,
        "meta_inclination": 98.835,
        "meta_ra_of_asc_node": 259.7783,
        "meta_arg_of_pericenter": 298.1637,
        "meta_mean_anomaly": 61.1264,
        "meta_ephemeris_type": 0,
        "meta_classification_type": "U",
        "meta_norad_cat_id": 30432,
        "meta_element_set_no": 999,
        "meta_rev_at_epoch": 98932,
        "meta_bstar": 0.00074692958,
        "meta_mean_motion_dot": 2.436e-05,
        "meta_mean_motion_ddot": 0,
        "tle_line1": "1 30432U 99025AET 25360.45613374  .00002436  00000+0  74693-3 0  9992",
        "tle_line2": "2 30432  98.8350 259.7783 0082194 298.1637  61.1264 14.40742178989327"
      },
      "geometry": {
        "type": "Point",
        "coordinates": [
          71.62651627733797,
          -43.48620112357701
        ]
      }
    },
    {
      "type": "Feature",
      "properties": {
        "norad_id": 30434,
        "name": "FENGYUN 1C DEB",
        "group": "fengyun-1c-debris",
        "lat": 9.925596285545987,
        "lon": -14.43494908882781,
        "alt_km": 1016.2222806521186,
        "timestamp": "2025-12-26T18:39:32.556593+00:00",
        "meta_object_name": "FENGYUN 1C DEB",
        "meta_object_id": "1999-025AEV",
        "meta_epoch": "2025-12-26T05:06:30.055968",
        "meta_mean_motion": 13.90662073,
        "meta_eccentricity": 0.01211703,
        "meta_inclination": 99.0004,
        "meta_ra_of_asc_node": 346.6074,
        "meta_arg_of_pericenter": 194.3681,
        "meta_mean_anomaly": 230.5987,
        "meta_ephemeris_type": 0,
        "meta_classification_type": "U",
        "meta_norad_cat_id": 30434,
        "meta_element_set_no": 999,
        "meta_rev_at_epoch": 95894,
        "meta_bstar": 0.00030498769,
        "meta_mean_motion_dot": 3.61e-06,
        "meta_mean_motion_ddot": 0,
        "tle_line1": "1 30434U 99025AEV 25360.21284787  .00000361  00000+0  30499-3 0  9991",
        "tle_line2": "2 30434  99.0004 346.6074 0121170 194.3681 230.5987 13.90662073958948"
      },
      "geometry": {
        "type": "Point",
        "coordinates": [
          -14.43494908882781,
          9.925596285545987
        ]
      }
    },
    {
      "type": "Feature",
      "properties": {
        "norad_id": 30435,
        "name": "FENGYUN 1C DEB",
        "group": "fengyun-1c-debris",
        "lat": -26.2215558935883,
        "lon": 161.9031530324569,
        "alt_km": 1071.933993592389,
        "timestamp": "2025-12-26T18:39:32.556602+00:00",
        "meta_object_name": "FENGYUN 1C DEB",
        "meta_object_id": "1999-025AEW",
        "meta_epoch": "2025-12-26T11:20:01.779648",
        "meta_mean_motion": 13.79669771,
        "meta_eccentricity": 0.02089883,
        "meta_inclination": 99.018,
        "meta_ra_of_asc_node": 346.0982,
        "meta_arg_of_pericenter": 75.0896,
        "meta_mean_anomaly": 54.4437,
        "meta_ephemeris_type": 0,
        "meta_classification_type": "U",
        "meta_norad_cat_id": 30435,
        "meta_element_set_no": 999,
        "meta_rev_at_epoch": 94349,
        "meta_bstar": 0.001594486,
        "meta_mean_motion_dot": 1.9e-05,
        "meta_mean_motion_ddot": 0,
        "tle_line1": "1 30435U 99025AEW 25360.47224282  .00001900  00000+0  15945-2 0  9992",
        "tle_line2": "2 30435  99.0180 346.0982 0208988  75.0896  54.4437 13.79669771943498"
      },
      "geometry": {
        "type": "Point",
        "coordinates": [
          161.9031530324569,
          -26.2215558935883
        ]
      }
    }
  ]
}